OBJECT_NAME,OBJECT_ID,EPOCH,MEAN_MOTION,ECCENTRICITY,INCLINATION,RA_OF_ASC_NODE,ARG_OF_PERICENTER,MEAN_ANOMALY,EPHEMERIS_TYPE,CLASSIFICATION_TYPE,NORAD_CAT_ID,ELEMENT_SET_NO,REV_AT_EPOCH,BSTAR,MEAN_MOTION_DOT,MEAN_MOTION_DDOT
EYESAT A (AO-27),1993-061C,2026-05-09T04:36:24.899040,14.30931570,.0007849,98.6893,196.6158,207.7553,152.3211,0,U,22825,999,70142,.43189E-4,.69E-6,0
ITAMSAT (IO-26),1993-061D,2026-05-09T04:23:29.143680,14.31357342,.0008675,98.6842,196.5204,190.9115,169.1881,0,U,22826,999,70173,.39445E-4,.6E-6,0
RADIO ROSTO (RS15),1994-085A,2026-05-09T04:21:19.419264,11.27583746,.0154857,64.8197,6.3008,11.0032,349.4217,0,U,23439,999,29150,-.84518E-4,-.45E-6,0
JAS-2 (FO-29),1996-046B,2026-05-09T04:46:17.008608,13.53272331,.0349541,98.5283,343.4024,197.4542,161.4333,0,U,24278,999,46789,-.94715E-5,-.45E-6,0
FORTE,1997-047A,2026-05-09T03:31:59.958336,14.27928512,.0023462,69.9515,102.1999,325.1978,34.7608,0,U,24920,999,49311,.89404E-4,.164E-5,0
TECHSAT 1B (GO-32),1998-043D,2026-05-08T22:32:03.747264,14.24420627,.0001218,99.0062,120.7101,20.8971,339.2256,0,U,25397,999,44574,.40359E-4,.47E-6,0
ISS (ZARYA),1998-067A,2026-05-08T23:21:48.545856,15.49152986,.0007399,51.6310,134.2107,38.6382,321.5134,0,U,25544,999,56567,.12812E-3,.6654E-4,0
IMAGE,2000-017A,2026-05-08T13:12:27.674784,1.68666113,.7462057,94.1980,314.8469,292.3139,8.1146,0,U,26113,999,16083,-.25034E-1,-.8E-7,0
CLUSTER II-FM7 (SAMBA),2000-041A,2026-05-10T04:58:22.033344,0.44818912,.90077886,149.7574,44.0320,260.7661,0.4598,0,U,26410,999,2013,0,.3007E-4,0
CLUSTER II-FM8 (TANGO),2000-045B,2026-05-10T03:23:54.310848,0.44409144,.90134383,150.0346,45.1293,261.7017,0.4740,0,U,26464,999,2012,0,.312E-4,0
ODIN,2001-007A,2026-05-09T02:03:10.682784,15.65530610,.0001255,97.3937,167.8413,212.4235,147.6948,0,U,26702,999,38326,.95465E-3,.96421E-3,0
OMNI-M1,2001-026A,2026-05-08T11:31:07.857120,3.92401558,.00155934,44.8458,254.4158,46.3657,313.7861,0,U,26857,999,20401,0,-.19E-6,0
PCSAT (NO-44),2001-043C,2026-05-09T01:05:46.803840,14.31940836,.0006334,67.0517,345.5103,263.7873,96.2508,0,U,26931,999,28484,.63618E-4,.88E-6,0
PROBA-1,2001-049B,2026-05-09T04:06:42.728832,15.07347696,.0053728,97.9608,136.3446,254.6272,104.9014,0,U,26958,999,33774,.10868E-3,.1624E-4,0
SAUDISAT 1C (SO-50),2002-058C,2026-05-09T01:02:27.892032,14.82964110,.0075632,64.5524,250.0855,269.6196,89.6243,0,U,27607,999,25865,.13135E-3,.966E-5,0
CORIOLIS,2003-001A,2026-05-09T00:26:38.501088,14.19933960,.001336,98.7138,136.5002,330.1928,29.8486,0,U,27640,999,20866,.60834E-4,.86E-6,0
CUTE-1 (CO-55),2003-031E,2026-05-08T23:29:40.741728,14.24311280,.000847,98.6748,138.0299,303.6695,56.3676,0,U,27844,999,18609,.12374E-3,.242E-5,0
CUBESAT XI-IV (CO-57),2003-031J,2026-05-08T22:44:48.801120,14.23599657,.0008677,98.6780,137.7433,324.4817,35.5783,0,U,27848,999,18579,.11154E-3,.21E-5,0
MOZHAETS 4 (RS22),2003-042A,2026-05-09T05:32:22.490304,14.73399221,.001209,98.3474,312.4912,37.5261,16.8863,0,U,27939,999,20981,.13996E-3,.854E-5,0
