EYESAT A (AO-27)        
1 22825U 93061C   26129.19195485  .00000069  00000+0  43189-4 0  9993
2 22825  98.6893 196.6158 0007849 207.7553 152.3211 14.30931570701429
ITAMSAT (IO-26)         
1 22826U 93061D   26129.18297620  .00000060  00000+0  39445-4 0  9998
2 22826  98.6842 196.5204 0008675 190.9115 169.1881 14.31357342701733
RADIO ROSTO (RS15)      
1 23439U 94085A   26129.18147476 -.00000045  00000+0 -84518-4 0  9995
2 23439  64.8197   6.3008 0154857  11.0032 349.4217 11.27583746291503
JAS-2 (FO-29)           
1 24278U 96046B   26129.19880797 -.00000045  00000+0 -94715-5 0  9998
2 24278  98.5283 343.4024 0349541 197.4542 161.4333 13.53272331467893
FORTE                   
1 24920U 97047A   26129.14722174  .00000164  00000+0  89404-4 0  9991
2 24920  69.9515 102.1999 0023462 325.1978  34.7608 14.27928512493114
TECHSAT 1B (GO-32)      
1 25397U 98043D   26128.93893226  .00000047  00000+0  40359-4 0  9996
2 25397  99.0062 120.7101 0001218  20.8971 339.2256 14.24420627445741
ISS (ZARYA)             
1 25544U 98067A   26128.97347854  .00006654  00000+0  12812-3 0  9993
2 25544  51.6310 134.2107 0007399  38.6382 321.5134 15.49152986565672
IMAGE                   
1 26113U 00017A   26128.55032031 -.00000008  00000+0 -25034-1 0  9993
2 26113  94.1980 314.8469 7462057 292.3139   8.1146  1.68666113160837
CLUSTER II-FM7 (SAMBA)  
1 26410U 00041A   26130.20719946  .00003007  00000+0  00000+0 0  9996
2 26410 149.7574  44.0320 9007788 260.7661   0.4598  0.44818912 20131
CLUSTER II-FM8 (TANGO)  
1 26464U 00045B   26130.14160082  .00003120  00000+0  00000+0 0  9999
2 26464 150.0346  45.1293 9013438 261.7017   0.4740  0.44409144 20129
ODIN                    
1 26702U 01007A   26129.08554031  .00096421  00000+0  95465-3 0  9994
2 26702  97.3937 167.8413 0001255 212.4235 147.6948 15.65530610383262
OMNI-M1                 
1 26857U 01026A   26128.47995205 -.00000019  00000+0  00000+0 0  9996
2 26857  44.8458 254.4158 0015593  46.3657 313.7861  3.92401558204019
PCSAT (NO-44)           
1 26931U 01043C   26129.04568060  .00000088  00000+0  63618-4 0  9991
2 26931  67.0517 345.5103 0006334 263.7873  96.2508 14.31940836284847
PROBA-1                 
1 26958U 01049B   26129.17132788  .00001624  00000+0  10868-3 0  9999
2 26958  97.9608 136.3446 0053728 254.6272 104.9014 15.07347696337742
SAUDISAT 1C (SO-50)     
1 27607U 02058C   26129.04337838  .00000966  00000+0  13135-3 0  9999
2 27607  64.5524 250.0855 0075632 269.6196  89.6243 14.82964110258651
CORIOLIS                
1 27640U 03001A   26129.01850117  .00000086  00000+0  60834-4 0  9994
2 27640  98.7138 136.5002 0013360 330.1928  29.8486 14.19933960208667
CUTE-1 (CO-55)          
1 27844U 03031E   26128.97894377  .00000242  00000+0  12374-3 0  9992
2 27844  98.6748 138.0299 0008470 303.6695  56.3676 14.24311280186095
CUBESAT XI-IV (CO-57)   
1 27848U 03031J   26128.94778705  .00000210  00000+0  11154-3 0  9999
2 27848  98.6780 137.7433 0008677 324.4817  35.5783 14.23599657185796
MOZHAETS 4 (RS22)       
1 27939U 03042A   26129.23081586  .00000854  00000+0  13996-3 0  9999
2 27939  98.3474 312.4912 0012090  37.5261  16.8863 14.73399221209818
